[{"OBJECT_NAME":"STARLINK-35590","OBJECT_ID":"2025-236Y","EPOCH":"2026-03-09T11:35:14.734752","MEAN_MOTION":15.3021397,"ECCENTRICITY":0.00012865,"INCLINATION":53.159,"RA_OF_ASC_NODE":104.78,"ARG_OF_PERICENTER":78.7866,"MEAN_ANOMALY":281.3279,"EPHEMERIS_TYPE":0,"CLASSIFICATION_TYPE":"U","NORAD_CAT_ID":66108,"ELEMENT_SET_NO":999,"REV_AT_EPOCH":2285,"BSTAR":0.0016388711,"MEAN_MOTION_DOT":0.00048518,"MEAN_MOTION_DDOT":0},{"OBJECT_NAME":"AIST-2 (RS43)","OBJECT_ID":"2013-015D","EPOCH":"2026-03-09T22:52:25.813056","MEAN_MOTION":15.25079544,"ECCENTRICITY":0.00239979,"INCLINATION":64.8687,"RA_OF_ASC_NODE":221.5348,"ARG_OF_PERICENTER":248.8384,"MEAN_ANOMALY":111.0181,"EPHEMERIS_TYPE":0,"CLASSIFICATION_TYPE":"U","NORAD_CAT_ID":39133,"ELEMENT_SET_NO":999,"REV_AT_EPOCH":70876,"BSTAR":0.00037899099,"MEAN_MOTION_DOT":9.402e-5,"MEAN_MOTION_DDOT":0}]
